NORAD_CAT_ID,OBJECT_NAME,OBJECT_TYPE,EPOCH,MEAN_MOTION,ECCENTRICITY,INCLINATION,RA_OF_ASC_NODE,ARG_OF_PERICENTER,MEAN_ANOMALY,BSTAR,MEAN_MOTION_DOT,MEAN_MOTION_DDOT,TLE_LINE0,TLE_LINE1,TLE_LINE2,SEMIMAJOR_AXIS,PERIOD,APOGEE,PERIGEE,DECAYED
49148.0,STARLINK-3048,PAYLOAD,2024-04-28 13:54:58,14.9830979,0.000276,70.0015,189.2394,268.8491,91.2352,-0.00042337,-5.138e-05,0.0,0 STARLINK-3048,1 49148U 21082U   24119.57984636 -.00005138  00000-0 -42337-3 0  9995,2 49148  70.0015 189.2394 0002760 268.8491  91.2352 14.98309790144595,6950.255,96.108,574.039,570.202,0.0
49148.0,STARLINK-3048,PAYLOAD,2024-04-28 21:55:39,14.98310836,0.000283,70.0014,188.3979,269.7309,90.3526,0.00048511,5.697e-05,0.0,0 STARLINK-3048,1 49148U 21082U   24119.91365231  .00005697  00000-0  48511-3 0  9995,2 49148  70.0014 188.3979 0002830 269.7309  90.3526 14.98310836144641,6950.252,96.108,574.084,570.15,0.0
49148.0,STARLINK-3048,PAYLOAD,2024-04-29 12:20:52,14.9832691,0.0002925,70.001,186.8829,270.0055,90.0768,0.0010844,0.00012869,0.0,0 STARLINK-3048,1 49148U 21082U   24120.51449690  .00012869  00000-0  10844-2 0  9991,2 49148  70.0010 186.8829 0002925 270.0055  90.0768 14.98326910145862,6950.202,96.107,574.1,570.035,0.0
49148.0,STARLINK-3048,PAYLOAD,2024-04-29 21:57:40,14.98336096,0.0002975,70.0009,185.8725,269.8101,90.2717,0.00098733,0.00011709,0.0,0 STARLINK-3048,1 49148U 21082U   24120.91505597  .00011709  00000-0  98733-3 0  9990,2 49148  70.0009 185.8725 0002975 269.8101  90.2717 14.98336096144790,6950.174,96.107,574.107,569.971,0.0
49148.0,STARLINK-3048,PAYLOAD,2024-04-30 13:59:00,14.98350055,0.0003029,70.001,184.1895,270.2158,89.8654,0.00087008,0.00010309,0.0,0 STARLINK-3048,1 49148U 21082U   24121.58264969  .00010309  00000-0  87008-3 0  9997,2 49148  70.0010 184.1895 0003029 270.2158  89.8654 14.98350055144897,6950.131,96.106,574.101,569.891,0.0
49148.0,STARLINK-3048,PAYLOAD,2024-04-30 21:59:41,14.98349224,0.0003026,70.0011,183.3477,270.3947,89.6865,0.00061111,7.21e-05,0.0,0 STARLINK-3048,1 49148U 21082U   24121.91644684  .00007210  00000-0  61111-3 0  9994,2 49148  70.0011 183.3477 0003026 270.3947  89.6865 14.98349224144943,6950.133,96.106,574.102,569.895,0.0
49148.0,STARLINK-3048,PAYLOAD,2024-05-01 04:24:13,14.98351423,0.0003001,70.0012,182.6745,270.474,89.6075,0.00058358,6.881e-05,0.0,0 STARLINK-3048,1 49148U 21082U   24122.18348436  .00006881  00000-0  58358-3 0  9992,2 49148  70.0012 182.6745 0003001 270.4740  89.6075 14.98351423146117,6950.127,96.106,574.077,569.906,0.0
49148.0,STARLINK-3048,PAYLOAD,2024-05-01 06:00:21,14.9835113,0.0003008,70.0012,182.5062,270.4988,89.5826,0.00054008,6.361e-05,0.0,0 STARLINK-3048,1 49148U 21082U   24122.25024364  .00006361  00000-0  54008-3 0  9992,2 49148  70.0012 182.5062 0003008 270.4988  89.5826 14.98351130144991,6950.128,96.106,574.083,569.902,0.0
49148.0,STARLINK-3048,PAYLOAD,2024-05-02 04:26:13,14.98341462,0.0002973,70.0016,180.1497,271.1214,88.9604,0.00010089,1.111e-05,0.0,0 STARLINK-3048,1 49148U 21082U   24123.18487857  .00001111  00000-0  10089-3 0  9994,2 49148  70.0016 180.1497 0002973 271.1214  88.9604 14.98341462146267,6950.157,96.106,574.089,569.956,0.0
49148.0,STARLINK-3048,PAYLOAD,2024-05-02 12:26:54,14.98337943,0.0003013,69.9997,179.3081,270.6228,89.4585,1.3136e-05,6.4e-07,0.0,0 STARLINK-3048,1 49148U 21082U   24123.51868284  .00000064  00000-0  13136-4 0  9991,2 49148  69.9997 179.3081 0003013 270.6228  89.4585 14.98337943146315,6950.168,96.106,574.127,569.939,0.0
49148.0,STARLINK-3048,PAYLOAD,2024-05-02 14:03:02,14.98338076,0.0003011,69.9997,179.1398,270.7281,89.3533,6.2381e-06,-1.9e-07,0.0,0 STARLINK-3048,1 49148U 21082U   24123.58544208 -.00000019  00000-0  62381-5 0  9993,2 49148  69.9997 179.1398 0003011 270.7281  89.3533 14.98338076145197,6950.168,96.106,574.126,569.94,0.0
49148.0,STARLINK-3048,PAYLOAD,2024-05-03 12:28:53,14.98345092,0.0003138,69.9993,176.7832,269.3265,90.7535,0.00012627,1.414e-05,0.0,0 STARLINK-3048,1 49148U 21082U   24124.52006833  .00001414  00000-0  12627-3 0  9990,2 49148  69.9993 176.7832 0003138 269.3265  90.7535 14.98345092146460,6950.146,96.106,574.192,569.83,0.0
49148.0,STARLINK-3048,PAYLOAD,2024-05-03 14:05:01,14.98346186,0.0003133,69.9993,176.6149,269.1614,90.9186,0.00013858,1.562e-05,0.0,0 STARLINK-3048,1 49148U 21082U   24124.58682689  .00001562  00000-0  13858-3 0  9996,2 49148  69.9993 176.6149 0003133 269.1614  90.9186 14.98346186145346,6950.143,96.106,574.185,569.83,0.0
49148.0,STARLINK-3048,PAYLOAD,2024-05-03 20:29:35,14.98327739,0.0003113,70.0006,175.9444,259.5219,100.5589,5.4209e-05,5.54e-06,0.0,0 STARLINK-3048,1 49148U 21082U   24124.85387772  .00000554  00000-0  54209-4 0  9997,2 49148  70.0006 175.9444 0003113 259.5219 100.5589 14.98327739145388,6950.2,96.107,574.228,569.901,0.0
49148.0,STARLINK-3048,PAYLOAD,2024-05-04 04:30:16,14.983221,0.0002505,70.0004,175.1037,256.1491,103.939,-5.4804e-06,-1.58e-06,0.0,0 STARLINK-3048,1 49148U 21082U   24125.18768609 -.00000158  00000-0 -54804-5 0  9990,2 49148  70.0004 175.1037 0002505 256.1491 103.9390 14.98322100146560,6950.217,96.108,573.823,570.341,0.0
49148.0,STARLINK-3048,PAYLOAD,2024-05-04 12:30:57,14.98311659,0.0002765,70.0,174.2609,262.4995,97.585,-0.00013185,-1.665e-05,0.0,0 STARLINK-3048,1 49148U 21082U   24125.52149828 -.00001665  00000-0 -13185-3 0  9993,2 49148  70.0000 174.2609 0002765 262.4995  97.5850 14.98311659146610,6950.25,96.108,574.036,570.193,0.0
49148.0,STARLINK-3048,PAYLOAD,2024-05-05 04:32:17,14.98322754,0.0003029,69.9993,172.5758,266.6236,93.4576,-7.9472e-05,-1.041e-05,0.0,0 STARLINK-3048,1 49148U 21082U   24126.18909480 -.00001041  00000-0 -79472-4 0  9994,2 49148  69.9993 172.5758 0003029 266.6236  93.4576 14.98322754146711,6950.215,96.107,574.186,569.975,0.0
49148.0,STARLINK-3048,PAYLOAD,2024-05-05 12:32:58,14.98325534,0.0003021,69.9993,171.7342,266.4666,93.6147,-3.9939e-05,-5.69e-06,0.0,0 STARLINK-3048,1 49148U 21082U   24126.52289448 -.00000569  00000-0 -39939-4 0  9995,2 49148  69.9993 171.7342 0003021 266.4666  93.6147 14.98325534145633,6950.207,96.107,574.171,569.972,0.0
49148.0,STARLINK-3048,PAYLOAD,2024-05-05 20:33:38,14.98330852,0.0003064,69.9992,170.8927,264.8869,95.1941,5.0781e-06,-3.2e-07,0.0,0 STARLINK-3048,1 49148U 21082U   24126.85669135 -.00000032  00000-0  50781-5 0  9999,2 49148  69.9992 170.8927 0003064 264.8869  95.1941 14.98330852146814,6950.19,96.107,574.185,569.926,0.0
49148.0,STARLINK-3048,PAYLOAD,2024-05-06 12:34:59,14.98339925,0.0003078,70.0004,169.2095,265.6435,94.4373,0.00077088,9.119e-05,0.0,0 STARLINK-3048,1 49148U 21082U   24127.52429653  .00009119  00000-0  77088-3 0  9994,2 49148  70.0004 169.2095 0003078 265.6435  94.4373 14.98339925145788,6950.162,96.106,574.166,569.888,0.0
49148.0,STARLINK-3048,PAYLOAD,2024-05-06 20:35:39,14.98332526,0.0002957,70.0004,168.3677,266.7415,93.3406,0.00046409,5.449e-05,0.0,0 STARLINK-3048,1 49148U 21082U   24127.85809940  .00005449  00000-0  46409-3 0  9996,2 49148  70.0004 168.3677 0002957 266.7415  93.3406 14.98332526146965,6950.185,96.107,574.105,569.995,0.0
49148.0,STARLINK-3048,PAYLOAD,2024-05-07 12:37:00,14.98329135,0.0002889,70.0002,166.6843,262.1252,97.9579,0.00029954,3.483e-05,0.0,0 STARLINK-3048,1 49148U 21082U   24128.52569973  .00003483  00000-0  29954-3 0  9992,2 49148  70.0002 166.6843 0002889 262.1252  97.9579 14.98329135145931,6950.196,96.107,574.068,570.053,0.0
49148.0,STARLINK-3048,PAYLOAD,2024-05-08 04:38:20,14.98342571,0.0003117,70.0003,165.0012,264.6259,95.4544,0.00019219,2.202e-05,0.0,0 STARLINK-3048,1 49148U 21082U   24129.19328999  .00002202  00000-0  19219-3 0  9998,2 49148  70.0003 165.0012 0003117 264.6259  95.4544 14.98342571147163,6950.154,96.106,574.185,569.853,0.0
49148.0,STARLINK-3048,PAYLOAD,2024-05-08 11:02:52,14.98343098,0.0003,70.0003,164.3279,264.7058,95.3759,0.00027652,3.209e-05,0.0,0 STARLINK-3048,1 49148U 21082U   24129.46032862  .00003209  00000-0  27652-3 0  9997,2 49148  70.0003 164.3279 0003000 264.7058  95.3759 14.98343098146070,6950.152,96.106,574.102,569.932,0.0
49148.0,STARLINK-3048,PAYLOAD,2024-05-08 19:03:33,14.98333833,0.0002946,70.0,163.4864,260.3312,99.7514,0.00079622,9.421e-05,0.0,0 STARLINK-3048,1 49148U 21082U   24129.79413309  .00009421  00000-0  79622-3 0  9998,2 49148  70.0000 163.4864 0002946 260.3312  99.7514 14.98333833147254,6950.181,96.107,574.094,569.999,0.0
49148.0,STARLINK-3048,PAYLOAD,2024-05-09 04:40:20,14.98349689,0.0003233,69.9997,162.4764,263.9179,96.1612,0.00036433,4.259e-05,0.0,0 STARLINK-3048,1 49148U 21082U   24130.19467948  .00004259  00000-0  36433-3 0  9999,2 49148  69.9997 162.4764 0003233 263.9179  96.1612 14.98349689147317,6950.132,96.106,574.244,569.75,0.0
49148.0,STARLINK-3048,PAYLOAD,2024-05-09 12:41:00,14.983543,0.000324,69.9998,161.6348,264.4917,95.5873,0.00039475,4.623e-05,0.0,0 STARLINK-3048,1 49148U 21082U   24130.52847415  .00004623  00000-0  39475-3 0  9991,2 49148  69.9998 161.6348 0003240 264.4917  95.5873 14.98354300146239,6950.118,96.105,574.235,569.731,0.0
49148.0,STARLINK-3048,PAYLOAD,2024-05-10 04:42:21,14.98334292,0.0003761,69.9992,159.9504,272.5547,87.5182,-9.1388e-05,-1.184e-05,0.0,0 STARLINK-3048,1 49148U 21082U   24131.19607934 -.00001184  00000-0 -91388-4 0  9998,2 49148  69.9992 159.9504 0003761 272.5547  87.5182 14.98334292147462,6950.18,96.107,574.659,569.431,0.0
49148.0,STARLINK-3048,PAYLOAD,2024-05-10 11:06:54,14.98316692,0.0003276,69.9999,159.278,265.5336,94.5449,-0.00038932,-4.734e-05,0.0,0 STARLINK-3048,1 49148U 21082U   24131.46312928 -.00004734  00000-0 -38932-3 0  9993,2 49148  69.9999 159.2780 0003276 265.5336  94.5449 14.98316692147500,6950.234,96.108,574.376,569.822,0.0
49148.0,STARLINK-3048,PAYLOAD,2024-05-10 19:07:34,14.98325747,0.0003311,70.0002,158.4353,265.0385,95.0396,-0.00031761,-3.88e-05,0.0,0 STARLINK-3048,1 49148U 21082U   24131.79692433 -.00003880  00000-0 -31761-3 0  9995,2 49148  70.0002 158.4353 0003311 265.0385  95.0396 14.98325747147557,6950.206,96.107,574.372,569.77,0.0
